STARLINK-2611_new
1 18364C 21038M   21326.14305608  .00009174  00000-0  61463-3 0  3268
2 18364  53.0529 198.0903 0002131  71.2008 142.3878 15.06391238    18
STARLINK-2611_old
1 28364C 21038M   21325.13523101  .00008336  00000-0  55860-3 0  3258
2 28364  53.0533 202.6146 0002065  70.0886  75.0232 15.06384310    10
